GLOBALSTAR M084         
1 38040U 11080A   23229.67569218 -.00000080  00000+0  13164-3 0  9993
2 38040  52.0002 286.7154 0000456  87.9394  90.6739 12.62264778538391
GLOBALSTAR M080         
1 38041U 11080B   23229.64583994 -.00000074  00000+0  16612-3 0  9992
2 38041  52.0057 288.1770 0000306  61.2332 102.2828 12.62263526538370
GLOBALSTAR M082         
1 38042U 11080C   23229.24492697 -.00000100  00000+0  19085-4 0  9996
2 38042  52.0051 244.7719 0000795 152.1516 288.2342 12.62270127539060
GLOBALSTAR M092         
1 38043U 11080D   23230.03027770 -.00000084  00000+0  10815-3 0  9994
2 38043  52.0101 332.7217 0000881  85.2173  85.7947 12.62271547537650
GLOBALSTAR M090         
1 38044U 11080E   23229.35581845 -.00000104  00000+0 -28694-5 0  9996
2 38044  51.9857 239.1059 0000318 158.0625 306.5872 12.62266995539066
GLOBALSTAR M086         
1 38045U 11080F   23229.79220064 -.00000094  00000+0  55702-4 0  9994
2 38045  51.9869 238.2748 0000871 277.0085 252.2663 12.62269574539129
GLOBALSTAR M097         
1 39072U 13005A   23230.09846636 -.00000097  00000+0  40401-4 0  9991
2 39072  52.0038 151.2099 0000162  78.8721 281.2164 12.62270096486399
GLOBALSTAR M093         
1 39073U 13005B   23229.20078170 -.00000095  00000+0  48930-4 0  9996
2 39073  51.9802 148.3171 0000060 216.4633 143.6229 12.62265925486279
